{"type": "FeatureCollection", "features": [ {"type": "Feature", "properties": {"norad_id": 37284, "name": "COSMOS 2251 DEB", "group": "cosmos-2251-debris", "lat": 23.352780580077194, "lon": -35.18994479325022, "alt_km": 946.5661047731846, "timestamp": "2025-12-15T10:55:21.542473+00:00", "meta": {"OBJECT_NAME": "COSMOS 2251 DEB", "OBJECT_ID": "1993-036BHY", "EPOCH": "2025-12-10T18:04:20.469216", "MEAN_MOTION": 14.12686618, "ECCENTRICITY": 0.01605026, "INCLINATION": 74.0123, "RA_OF_ASC_NODE": 160.2425, "ARG_OF_PERICENTER": 312.4867, "MEAN_ANOMALY": 59.8736, "EPHEMERIS_TYPE": 0, "CLASSIFICATION_TYPE": "U", "NORAD_CAT_ID": 37284, "ELEMENT_SET_NO": 999, "REV_AT_EPOCH": 59147, "BSTAR": 0.001592138, "MEAN_MOTION_DOT": 3.31e-05, "MEAN_MOTION_DDOT": 0}, "tle": {"line1": "1 37284U 93036BHY 25344.75301469  .00003310  00000+0  15921-2 0  9994", "line2": "2 37284  74.0123 160.2425 0160502 312.4867  59.8736 14.12686618591475"}}, "geometry": {"type": "Point", "coordinates": [-35.18994479325022, 23.352780580077194]}}, {"type": "Feature", "properties": {"norad_id": 37292, "name": "COSMOS 2251 DEB", "group": "cosmos-2251-debris", "lat": -8.184807069206455, "lon": -132.58107574237286, "alt_km": 1002.7951103522619, "timestamp": "2025-12-15T10:55:21.542483+00:00", "meta": {"OBJECT_NAME": "COSMOS 2251 DEB", "OBJECT_ID": "1993-036BJG", "EPOCH": "2025-12-02T14:04:30.366912", "MEAN_MOTION": 14.03226454, "ECCENTRICITY": 0.02102512, "INCLINATION": 74.129, "RA_OF_ASC_NODE": 67.3453, "ARG_OF_PERICENTER": 73.1105, "MEAN_ANOMALY": 289.2966, "EPHEMERIS_TYPE": 0, "CLASSIFICATION_TYPE": "U", "NORAD_CAT_ID": 37292, "ELEMENT_SET_NO": 999, "REV_AT_EPOCH": 59706, "BSTAR": 0.0022453288, "MEAN_MOTION_DOT": 4.236e-05, "MEAN_MOTION_DDOT": 0}, "tle": {"line1": "1 37292U 93036BJG 25336.58646258  .00004236  00000+0  22453-2 0  9999", "line2": "2 37292  74.1290  67.3453 0210251  73.1105 289.2966 14.03226454597064"}}, "geometry": {"type": "Point", "coordinates": [-132.58107574237286, -8.184807069206455]}}, {"type": "Feature", "properties": {"norad_id": 37295, "name": "COSMOS 2251 DEB", "group": "cosmos-2251-debris", "lat": -13.70796249194109, "lon": -87.6212870070056, "alt_km": 690.4551148921291, "timestamp": "2025-12-15T10:55:21.542493+00:00", "meta": {"OBJECT_NAME": "COSMOS 2251 DEB", "OBJECT_ID": "1993-036BJK", "EPOCH": "2025-12-13T13:06:23.160960", "MEAN_MOTION": 14.65245888, "ECCENTRICITY": 0.00438082, "INCLINATION": 74.0063, "RA_OF_ASC_NODE": 280.069, "ARG_OF_PERICENTER": 99.0616, "MEAN_ANOMALY": 261.5513, "EPHEMERIS_TYPE": 0, "CLASSIFICATION_TYPE": "U", "NORAD_CAT_ID": 37295, "ELEMENT_SET_NO": 999, "REV_AT_EPOCH": 82316, "BSTAR": 0.00074329586, "MEAN_MOTION_DOT": 4.033e-05, "MEAN_MOTION_DDOT": 0}, "tle": {"line1": "1 37295U 93036BJK 25347.54610140  .00004033  00000+0  74330-3 0  9998", "line2": "2 37295  74.0063 280.0690 0043808  99.0616 261.5513 14.65245888823161"}}, "geometry": {"type": "Point", "coordinates": [-87.6212870070056, -13.70796249194109]}}, {"type": "Feature", "properties": {"norad_id": 37305, "name": "COSMOS 2251 DEB", "group": "cosmos-2251-debris", "lat": -22.735489577324465, "lon": 112.44547089440822, "alt_km": 749.5216371462966, "timestamp": "2025-12-15T10:55:21.542503+00:00", "meta": {"OBJECT_NAME": "COSMOS 2251 DEB", "OBJECT_ID": "1993-036BJV", "EPOCH": "2025-12-13T12:50:04.816608", "MEAN_MOTION": 14.36140847, "ECCENTRICITY": 0.00500253, "INCLINATION": 73.8697, "RA_OF_ASC_NODE": 289.0409, "ARG_OF_PERICENTER": 249.3262, "MEAN_ANOMALY": 110.2523, "EPHEMERIS_TYPE": 0, "CLASSIFICATION_TYPE": "U", "NORAD_CAT_ID": 37305, "ELEMENT_SET_NO": 999, "REV_AT_EPOCH": 66878, "BSTAR": 0.00092453159, "MEAN_MOTION_DOT": 2.706e-05, "MEAN_MOTION_DDOT": 0}, "tle": {"line1": "1 37305U 93036BJV 25347.53477797  .00002706  00000+0  92453-3 0  9999", "line2": "2 37305  73.8697 289.0409 0050025 249.3262 110.2523 14.36140847668789"}}, "geometry": {"type": "Point", "coordinates": [112.44547089440822, -22.735489577324465]}}, {"type": "Feature", "properties": {"norad_id": 37312, "name": "COSMOS 2251 DEB", "group": "cosmos-2251-debris", "lat": -15.344992203114044, "lon": -165.39429289161765, "alt_km": 732.9898285668414, "timestamp": "2025-12-15T10:55:21.542513+00:00", "meta": {"OBJECT_NAME": "COSMOS 2251 DEB", "OBJECT_ID": "1993-036BKC", "EPOCH": "2025-12-14T06:46:17.768640", "MEAN_MOTION": 14.46132509, "ECCENTRICITY": 0.0018364, "INCLINATION": 74.031, "RA_OF_ASC_NODE": 201.3012, "ARG_OF_PERICENTER": 304.3949, "MEAN_ANOMALY": 55.5472, "EPHEMERIS_TYPE": 0, "CLASSIFICATION_TYPE": "U", "NORAD_CAT_ID": 37312, "ELEMENT_SET_NO": 999, "REV_AT_EPOCH": 86186, "BSTAR": 0.000527759, "MEAN_MOTION_DOT": 1.862e-05, "MEAN_MOTION_DDOT": 0}, "tle": {"line1": "1 37312U 93036BKC 25348.28215010  .00001862  00000+0  52776-3 0  9994", "line2": "2 37312  74.0310 201.3012 0018364 304.3949  55.5472 14.46132509861868"}}, "geometry": {"type": "Point", "coordinates": [-165.39429289161765, -15.344992203114044]}}, {"type": "Feature", "properties": {"norad_id": 37316, "name": "COSMOS 2251 DEB", "group": "cosmos-2251-debris", "lat": -60.31624113073796, "lon": -14.584846561722836, "alt_km": 607.5142680389899, "timestamp": "2025-12-15T10:55:21.542524+00:00", "meta": {"OBJECT_NAME": "COSMOS 2251 DEB", "OBJECT_ID": "1993-036BKG", "EPOCH": "2025-12-14T03:04:58.895616", "MEAN_MOTION": 14.94578361, "ECCENTRICITY": 0.00293501, "INCLINATION": 74.0208, "RA_OF_ASC_NODE": 18.2691, "ARG_OF_PERICENTER": 85.9005, "MEAN_ANOMALY": 274.5532, "EPHEMERIS_TYPE": 0, "CLASSIFICATION_TYPE": "U", "NORAD_CAT_ID": 37316, "ELEMENT_SET_NO": 999, "REV_AT_EPOCH": 86164, "BSTAR": 0.0019027011, "MEAN_MOTION_DOT": 0.00020787, "MEAN_MOTION_DDOT": 0}, "tle": {"line1": "1 37316U 93036BKG 25348.12845944  .00020787  00000+0  19027-2 0  9994", "line2": "2 37316  74.0208  18.2691 0029350  85.9005 274.5532 14.94578361861647"}}, "geometry": {"type": "Point", "coordinates": [-14.584846561722836, -60.31624113073796]}}, {"type": "Feature", "properties": {"norad_id": 37320, "name": "COSMOS 2251 DEB", "group": "cosmos-2251-debris", "lat": -72.96819754185185, "lon": 143.78426430307303, "alt_km": 609.7138866906598, "timestamp": "2025-12-15T10:55:21.542534+00:00", "meta": {"OBJECT_NAME": "COSMOS 2251 DEB", "OBJECT_ID": "1993-036BKL", "EPOCH": "2025-12-14T07:41:51.703584", "MEAN_MOTION": 14.78808328, "ECCENTRICITY": 0.00469324, "INCLINATION": 74.0457, "RA_OF_ASC_NODE": 215.056, "ARG_OF_PERICENTER": 301.712, "MEAN_ANOMALY": 57.9484, "EPHEMERIS_TYPE": 0, "CLASSIFICATION_TYPE": "U", "NORAD_CAT_ID": 37320, "ELEMENT_SET_NO": 999, "REV_AT_EPOCH": 66170, "BSTAR": 0.00089962437, "MEAN_MOTION_DOT": 6.711e-05, "MEAN_MOTION_DDOT": 0}, "tle": {"line1": "1 37320U 93036BKL 25348.32073731  .00006711  00000+0  89962-3 0  9995", "line2": "2 37320  74.0457 215.0560 0046932 301.7120  57.9484 14.78808328661707"}}, "geometry": {"type": "Point", "coordinates": [143.78426430307303, -72.96819754185185]}}, {"type": "Feature", "properties": {"norad_id": 37326, "name": "COSMOS 2251 DEB", "group": "cosmos-2251-debris", "lat": -43.973427422512614, "lon": -46.54555792630347, "alt_km": 725.6079937115528, "timestamp": "2025-12-15T10:55:21.542544+00:00", "meta": {"OBJECT_NAME": "COSMOS 2251 DEB", "OBJECT_ID": "1993-036BKS", "EPOCH": "2025-12-12T07:34:09.729696", "MEAN_MOTION": 14.61572404, "ECCENTRICITY": 0.00547779, "INCLINATION": 74.0262, "RA_OF_ASC_NODE": 335.5049, "ARG_OF_PERICENTER": 104.6745, "MEAN_ANOMALY": 256.0503, "EPHEMERIS_TYPE": 0, "CLASSIFICATION_TYPE": "U", "NORAD_CAT_ID": 37326, "ELEMENT_SET_NO": 999, "REV_AT_EPOCH": 85477, "BSTAR": 0.00081564532, "MEAN_MOTION_DOT": 4.11e-05, "MEAN_MOTION_DDOT": 0}, "tle": {"line1": "1 37326U 93036BKS 25346.31539039  .00004110  00000+0  81565-3 0  9998", "line2": "2 37326  74.0262 335.5049 0054777 104.6745 256.0503 14.61572404854776"}}, "geometry": {"type": "Point", "coordinates": [-46.54555792630347, -43.973427422512614]}}, {"type": "Feature", "properties": {"norad_id": 37330, "name": "COSMOS 2251 DEB", "group": "cosmos-2251-debris", "lat": -63.68415602173735, "lon": -105.51021480802011, "alt_km": 737.4830826492816, "timestamp": "2025-12-15T10:55:21.542555+00:00", "meta": {"OBJECT_NAME": "COSMOS 2251 DEB", "OBJECT_ID": "1993-036BKW", "EPOCH": "2025-12-13T13:10:48.219744", "MEAN_MOTION": 14.59543313, "ECCENTRICITY": 0.00569835, "INCLINATION": 74.0177, "RA_OF_ASC_NODE": 293.5413, "ARG_OF_PERICENTER": 141.8805, "MEAN_ANOMALY": 218.6413, "EPHEMERIS_TYPE": 0, "CLASSIFICATION_TYPE": "U", "NORAD_CAT_ID": 37330, "ELEMENT_SET_NO": 999, "REV_AT_EPOCH": 86380, "BSTAR": 0.00043870058, "MEAN_MOTION_DOT": 2.102e-05, "MEAN_MOTION_DDOT": 0}, "tle": {"line1": "1 37330U 93036BKW 25347.54916921  .00002102  00000+0  43870-3 0  9994", "line2": "2 37330  74.0177 293.5413 0056983 141.8805 218.6413 14.59543313863807"}}, "geometry": {"type": "Point", "coordinates": [-105.51021480802011, -63.68415602173735]}}, {"type": "Feature", "properties": {"norad_id": 37331, "name": "COSMOS 2251 DEB", "group": "cosmos-2251-debris", "lat": 5.057250254763053, "lon": -118.5441193829262, "alt_km": 782.2929508968564, "timestamp": "2025-12-15T10:55:21.542565+00:00", "meta": {"OBJECT_NAME": "COSMOS 2251 DEB", "OBJECT_ID": "1993-036BKX", "EPOCH": "2025-12-14T14:02:24.120096", "MEAN_MOTION": 14.3502836, "ECCENTRICITY": 0.00552546, "INCLINATION": 74.0749, "RA_OF_ASC_NODE": 64.4942, "ARG_OF_PERICENTER": 78.2715, "MEAN_ANOMALY": 282.463, "EPHEMERIS_TYPE": 0, "CLASSIFICATION_TYPE": "U", "NORAD_CAT_ID": 37331, "ELEMENT_SET_NO": 999, "REV_AT_EPOCH": 84786, "BSTAR": 0.00050230933, "MEAN_MOTION_DOT": 1.431e-05, "MEAN_MOTION_DDOT": 0}, "tle": {"line1": "1 37331U 93036BKX 25348.58500139  .00001431  00000+0  50231-3 0  9993", "line2": "2 37331  74.0749  64.4942 0055254  78.2715 282.4630 14.35028360847860"}}, "geometry": {"type": "Point", "coordinates": [-118.5441193829262, 5.057250254763053]}}]}